start=new Date('2022-07-06T00:00:00.000Z').valueOf();
sats=[{"COUNTRY_CODE":"US","APOAPSIS":"548.287","OBJECT_NAME":"STARLINK-1729","SITE":"AFETR","LAUNCH_DATE":"2020-10-06","REF_FRAME":"TEME","ARG_OF_PERICENTER":"76.7669","CLASSIFICATION_TYPE":"U","MEAN_MOTION_DDOT":"0.0000000000000","MEAN_MOTION":"15.06393404","EPHEMERIS_TYPE":"0","PERIAPSIS":"546.180","RCS_SIZE":"LARGE","OBJECT_TYPE":"PAYLOAD","ECCENTRICITY":"0.00015210","OBJECT_ID":"2020-070BD","MEAN_ANOMALY":"283.3489","RA_OF_ASC_NODE":"86.6089","CENTER_NAME":"EARTH","MEAN_ELEMENT_THEORY":"SGP4","NORAD_CAT_ID":"46583","FILE":"3508171","BSTAR":"-0.00003484400000","EPOCH":"2022-07-05T11:04:01.735680","MEAN_MOTION_DOT":"-0.00000800","SEMIMAJOR_AXIS":"6925.369","GP_ID":"207476280","TLE_LINE1":"1 46583U 20070BD  22186.46113120 -.00000800  00000-0 -34844-4 0  9999","TIME_SYSTEM":"UTC","REV_AT_EPOCH":"9704","ELEMENT_SET_NO":"999","INCLINATION":"53.0564","PERIOD":"95.593","DECAY_DATE":null,"TLE_LINE2":"2 46583  53.0564  86.6089 0001521  76.7669 283.3489 15.06393404 97040"},{"PERIAPSIS":"546.140","EPHEMERIS_TYPE":"0","OBJECT_ID":"2020-070BE","ECCENTRICITY":"0.00015210","MEAN_ANOMALY":"293.5854","RCS_SIZE":"LARGE","OBJECT_TYPE":"PAYLOAD","LAUNCH_DATE":"2020-10-06","COUNTRY_CODE":"US","SITE":"AFETR","OBJECT_NAME":"STARLINK-1732","APOAPSIS":"548.247","MEAN_MOTION_DDOT":"0.0000000000000","CLASSIFICATION_TYPE":"U","MEAN_MOTION":"15.06406524","REF_FRAME":"TEME","ARG_OF_PERICENTER":"66.5295","TLE_LINE1":"1 46584U 20070BE  22186.87946998 -.00000160  00000-0  81869-5 0  9990","TIME_SYSTEM":"UTC","GP_ID":"207482010","TLE_LINE2":"2 46584  53.0548  64.7357 0001521  66.5295 293.5854 15.06406524 97081","DECAY_DATE":null,"PERIOD":"95.592","ELEMENT_SET_NO":"999","REV_AT_EPOCH":"9708","INCLINATION":"53.0548","NORAD_CAT_ID":"46584","FILE":"3508247","MEAN_ELEMENT_THEORY":"SGP4","RA_OF_ASC_NODE":"64.7357","CENTER_NAME":"EARTH","MEAN_MOTION_DOT":"-0.00000160","BSTAR":"0.00000818690000","EPOCH":"2022-07-05T21:06:26.206272","SEMIMAJOR_AXIS":"6925.329"},{"EPHEMERIS_TYPE":"0","PERIAPSIS":"546.164","MEAN_ANOMALY":"289.6934","OBJECT_ID":"2020-070BF","ECCENTRICITY":"0.00015490","OBJECT_TYPE":"PAYLOAD","RCS_SIZE":"LARGE","LAUNCH_DATE":"2020-10-06","APOAPSIS":"548.309","OBJECT_NAME":"STARLINK-1736","SITE":"AFETR","COUNTRY_CODE":"US","MEAN_MOTION":"15.06392579","CLASSIFICATION_TYPE":"U","MEAN_MOTION_DDOT":"0.0000000000000","REF_FRAME":"TEME","ARG_OF_PERICENTER":"70.4222","TLE_LINE1":"1 46585U 20070BF  22186.36619521 -.00001838  00000-0 -10454-3 0  9998","TIME_SYSTEM":"UTC","GP_ID":"207476025","PERIOD":"95.593","TLE_LINE2":"2 46585  53.0554  67.0254 0001549  70.4222 289.6934 15.06392579 97310","DECAY_DATE":null,"INCLINATION":"53.0554","REV_AT_EPOCH":"9731","ELEMENT_SET_NO":"999","FILE":"3508171","NORAD_CAT_ID":"46585","RA_OF_ASC_NODE":"67.0254","CENTER_NAME":"EARTH","MEAN_ELEMENT_THEORY":"SGP4","SEMIMAJOR_AXIS":"6925.371","BSTAR":"-0.00010454000000","EPOCH":"2022-07-05T08:47:19.266144","MEAN_MOTION_DOT":"-0.00001838"},{"REV_AT_EPOCH":"9728","ELEMENT_SET_NO":"999","INCLINATION":"53.0544","PERIOD":"95.593","TLE_LINE2":"2 46586  53.0544  67.9760 0001453  76.2366 283.8785 15.06390864 97289","DECAY_DATE":null,"GP_ID":"207476031","TIME_SYSTEM":"UTC","TLE_LINE1":"1 46586U 20070BG  22186.15704780 -.00003558  00000-0 -22011-3 0  9991","BSTAR":"-0.00022011000000","EPOCH":"2022-07-05T03:46:08.929920","MEAN_MOTION_DOT":"-0.00003558","SEMIMAJOR_AXIS":"6925.377","RA_OF_ASC_NODE":"67.9760","CENTER_NAME":"EARTH","MEAN_ELEMENT_THEORY":"SGP4","NORAD_CAT_ID":"46586","FILE":"3508171","RCS_SIZE":"LARGE","OBJECT_TYPE":"PAYLOAD","ECCENTRICITY":"0.00014530","OBJECT_ID":"2020-070BG","MEAN_ANOMALY":"283.8785","EPHEMERIS_TYPE":"0","PERIAPSIS":"546.235","ARG_OF_PERICENTER":"76.2366","REF_FRAME":"TEME","CLASSIFICATION_TYPE":"U","MEAN_MOTION_DDOT":"0.0000000000000","MEAN_MOTION":"15.06390864","COUNTRY_CODE":"US","APOAPSIS":"548.248","OBJECT_NAME":"STARLINK-1737","SITE":"AFETR","LAUNCH_DATE":"2020-10-06"},{"RA_OF_ASC_NODE":"66.8700","MEAN_ELEMENT_THEORY":"SGP4","CENTER_NAME":"EARTH","FILE":"3508171","NORAD_CAT_ID":"46588","SEMIMAJOR_AXIS":"6925.366","BSTAR":"-0.00011880000000","EPOCH":"2022-07-05T09:41:46.032864","MEAN_MOTION_DOT":"-0.00002050","GP_ID":"207475780","TLE_LINE1":"1 46588U 20070BJ  22186.40400501 -.00002050  00000-0 -11880-3 0  9993","TIME_SYSTEM":"UTC","INCLINATION":"53.0551","REV_AT_EPOCH":"9732","ELEMENT_SET_NO":"999","PERIOD":"95.592","TLE_LINE2":"2 46588  53.0551  66.8700 0001713  73.1384 286.9793 15.06394357 97325","DECAY_DATE":null,"APOAPSIS":"548.417","OBJECT_NAME":"STARLINK-1746","SITE":"AFETR","COUNTRY_CODE":"US","LAUNCH_DATE":"2020-10-06","REF_FRAME":"TEME","ARG_OF_PERICENTER":"73.1384","MEAN_MOTION":"15.06394357","CLASSIFICATION_TYPE":"U","MEAN_MOTION_DDOT":"0.0000000000000","EPHEMERIS_TYPE":"0","PERIAPSIS":"546.045","OBJECT_TYPE":"PAYLOAD","RCS_SIZE":"LARGE","MEAN_ANOMALY":"286.9793","OBJECT_ID":"2020-070BJ","ECCENTRICITY":"0.00017130"},{"EPHEMERIS_TYPE":"0","PERIAPSIS":"546.318","MEAN_ANOMALY":"277.8444","OBJECT_ID":"2020-070BK","ECCENTRICITY":"0.00013310","OBJECT_TYPE":"PAYLOAD","RCS_SIZE":"LARGE","LAUNCH_DATE":"2020-10-06","APOAPSIS":"548.162","OBJECT_NAME":"STARLINK-1749","SITE":"AFETR","COUNTRY_CODE":"US","MEAN_MOTION":"15.06391340","CLASSIFICATION_TYPE":"U","MEAN_MOTION_DDOT":"0.0000000000000","REF_FRAME":"TEME","ARG_OF_PERICENTER":"82.2697","TLE_LINE1":"1 46589U 20070BK  22186.86106002 -.00000109  00000-0  11592-4 0  9996","TIME_SYSTEM":"UTC","GP_ID":"207482397","PERIOD":"95.593","TLE_LINE2":"2 46589  53.0565  64.8214 0001331  82.2697 277.8444 15.06391340 97391","DECAY_DATE":null,"INCLINATION":"53.0565","REV_AT_EPOCH":"9739","ELEMENT_SET_NO":"999","FILE":"3508249","NORAD_CAT_ID":"46589","MEAN_ELEMENT_THEORY":"SGP4","RA_OF_ASC_NODE":"64.8214","CENTER_NAME":"EARTH","SEMIMAJOR_AXIS":"6925.375","EPOCH":"2022-07-05T20:39:55.585728","BSTAR":"0.00001159200000","MEAN_MOTION_DOT":"-0.00000109"},{"RA_OF_ASC_NODE":"66.9472","CENTER_NAME":"EARTH","MEAN_ELEMENT_THEORY":"SGP4","NORAD_CAT_ID":"46591","FILE":"3508171","MEAN_MOTION_DOT":"-0.00000345","BSTAR":"-0.00000425190000","EPOCH":"2022-07-05T09:15:12.665664","SEMIMAJOR_AXIS":"6925.355","GP_ID":"207475526","TLE_LINE1":"1 46591U 20070BM  22186.38556326 -.00000345  00000-0 -42519-5 0  9991","TIME_SYSTEM":"UTC","ELEMENT_SET_NO":"999","REV_AT_EPOCH":"9637","INCLINATION":"53.0555","TLE_LINE2":"2 46591  53.0555  66.9472 0001564  79.9020 280.2146 15.06398018 96376","DECAY_DATE":null,"PERIOD":"95.592","COUNTRY_CODE":"US","SITE":"AFETR","APOAPSIS":"548.303","OBJECT_NAME":"STARLINK-1755","LAUNCH_DATE":"2020-10-06","ARG_OF_PERICENTER":"79.9020","REF_FRAME":"TEME","MEAN_MOTION_DDOT":"0.0000000000000","CLASSIFICATION_TYPE":"U","MEAN_MOTION":"15.06398018","PERIAPSIS":"546.137","EPHEMERIS_TYPE":"0","RCS_SIZE":"LARGE","OBJECT_TYPE":"PAYLOAD","ECCENTRICITY":"0.00015640","OBJECT_ID":"2020-070BM","MEAN_ANOMALY":"280.2146"},{"FILE":"3508171","NORAD_CAT_ID":"46671","CENTER_NAME":"EARTH","RA_OF_ASC_NODE":"157.3593","MEAN_ELEMENT_THEORY":"SGP4","SEMIMAJOR_AXIS":"6925.370","BSTAR":"-0.00001830300000","EPOCH":"2022-07-05T08:20:52.012608","MEAN_MOTION_DOT":"-0.00000554","TIME_SYSTEM":"UTC","TLE_LINE1":"1 46671U 20073B   22186.34782422 -.00000554  00000-0 -18303-4 0  9992","GP_ID":"207476039","PERIOD":"95.593","TLE_LINE2":"2 46671  53.0546 157.3593 0002014  55.5836 304.5343 15.06393037 94586","DECAY_DATE":null,"INCLINATION":"53.0546","REV_AT_EPOCH":"9458","ELEMENT_SET_NO":"999","LAUNCH_DATE":"2020-10-18","APOAPSIS":"548.630","OBJECT_NAME":"STARLINK-1715","SITE":"AFETR","COUNTRY_CODE":"US","MEAN_MOTION":"15.06393037","CLASSIFICATION_TYPE":"U","MEAN_MOTION_DDOT":"0.0000000000000","REF_FRAME":"TEME","ARG_OF_PERICENTER":"55.5836","EPHEMERIS_TYPE":"0","PERIAPSIS":"545.840","MEAN_ANOMALY":"304.5343","OBJECT_ID":"2020-073B","ECCENTRICITY":"0.00020140","OBJECT_TYPE":"PAYLOAD","RCS_SIZE":"LARGE"},{"MEAN_MOTION_DOT":"-0.00001485","EPOCH":"2022-07-05T10:20:54.638016","BSTAR":"-0.00008079700000","SEMIMAJOR_AXIS":"6925.368","MEAN_ELEMENT_THEORY":"SGP4","RA_OF_ASC_NODE":"151.7451","CENTER_NAME":"EARTH","NORAD_CAT_ID":"46672","FILE":"3508171","ELEMENT_SET_NO":"999","REV_AT_EPOCH":"9467","INCLINATION":"53.0563","TLE_LINE2":"2 46672  53.0563 151.7451 0001927  62.5492 297.5693 15.06393810 94673","DECAY_DATE":null,"PERIOD":"95.593","GP_ID":"207475788","TIME_SYSTEM":"UTC","TLE_LINE1":"1 46672U 20073C   22186.43118794 -.00001485  00000-0 -80797-4 0  9998","REF_FRAME":"TEME","ARG_OF_PERICENTER":"62.5492","MEAN_MOTION_DDOT":"0.0000000000000","CLASSIFICATION_TYPE":"U","MEAN_MOTION":"15.06393810","COUNTRY_CODE":"US","SITE":"AFETR","OBJECT_NAME":"STARLINK-1716","APOAPSIS":"548.567","LAUNCH_DATE":"2020-10-18","RCS_SIZE":"LARGE","OBJECT_TYPE":"PAYLOAD","OBJECT_ID":"2020-073C","ECCENTRICITY":"0.00019270","MEAN_ANOMALY":"297.5693","PERIAPSIS":"545.898","EPHEMERIS_TYPE":"0"},{"INCLINATION":"53.0529","ELEMENT_SET_NO":"999","REV_AT_EPOCH":"9445","TLE_LINE2":"2 46673  53.0529 166.9453 0001947  61.6057 298.5128 15.06399756 94450","DECAY_DATE":null,"PERIOD":"95.592","GP_ID":"207476540","TLE_LINE1":"1 46673U 20073D   22186.41323368  .00001049  00000-0  89352-4 0  9992","TIME_SYSTEM":"UTC","SEMIMAJOR_AXIS":"6925.349","MEAN_MOTION_DOT":"0.00001049","BSTAR":"0.00008935200000","EPOCH":"2022-07-05T09:55:03.389952","RA_OF_ASC_NODE":"166.9453","CENTER_NAME":"EARTH","MEAN_ELEMENT_THEORY":"SGP4","FILE":"3508171","NORAD_CAT_ID":"46673","OBJECT_TYPE":"PAYLOAD","RCS_SIZE":"LARGE","MEAN_ANOMALY":"298.5128","ECCENTRICITY":"0.00019470","OBJECT_ID":"2020-073D","PERIAPSIS":"545.866","EPHEMERIS_TYPE":"0","ARG_OF_PERICENTER":"61.6057","REF_FRAME":"TEME","MEAN_MOTION":"15.06399756","MEAN_MOTION_DDOT":"0.0000000000000","CLASSIFICATION_TYPE":"U","SITE":"AFETR","APOAPSIS":"548.563","OBJECT_NAME":"STARLINK-1717","COUNTRY_CODE":"US","LAUNCH_DATE":"2020-10-18"}];
